[{"OBJECT_NAME":"STARLINK-11313 [DTC]","OBJECT_ID":"2024-175N","EPOCH":"2025-08-10T14:45:19.419840","MEAN_MOTION":15.69681892,"ECCENTRICITY":8.47e-5,"INCLINATION":53.159,"RA_OF_ASC_NODE":16.8668,"ARG_OF_PERICENTER":102.3235,"MEAN_ANOMALY":257.7878,"EPHEMERIS_TYPE":0,"CLASSIFICATION_TYPE":"U","NORAD_CAT_ID":61255,"ELEMENT_SET_NO":999,"REV_AT_EPOCH":5021,"BSTAR":-2.7915e-5,"MEAN_MOTION_DOT":-3.964e-5,"MEAN_MOTION_DDOT":0},{"OBJECT_NAME":"STARLINK-32431","OBJECT_ID":"2024-175P","EPOCH":"2025-08-09T22:33:00.627840","MEAN_MOTION":15.30191715,"ECCENTRICITY":0.0001204,"INCLINATION":53.1592,"RA_OF_ASC_NODE":97.5993,"ARG_OF_PERICENTER":78.1805,"MEAN_ANOMALY":281.9331,"EPHEMERIS_TYPE":0,"CLASSIFICATION_TYPE":"U","NORAD_CAT_ID":61256,"ELEMENT_SET_NO":999,"REV_AT_EPOCH":4903,"BSTAR":2.8658e-5,"MEAN_MOTION_DOT":4.9e-6,"MEAN_MOTION_DDOT":0},{"OBJECT_NAME":"STARLINK-32432","OBJECT_ID":"2024-175Q","EPOCH":"2025-08-10T01:45:40.794912","MEAN_MOTION":15.30187447,"ECCENTRICITY":0.0001257,"INCLINATION":53.1588,"RA_OF_ASC_NODE":97.0162,"ARG_OF_PERICENTER":81.7818,"MEAN_ANOMALY":278.3325,"EPHEMERIS_TYPE":0,"CLASSIFICATION_TYPE":"U","NORAD_CAT_ID":61257,"ELEMENT_SET_NO":999,"REV_AT_EPOCH":4905,"BSTAR":4.8668e-6,"MEAN_MOTION_DOT":-2.15e-6,"MEAN_MOTION_DDOT":0},{"OBJECT_NAME":"STARLINK-32382","OBJECT_ID":"2024-175R","EPOCH":"2025-08-10T01:50:14.519616","MEAN_MOTION":15.30188226,"ECCENTRICITY":0.000109,"INCLINATION":53.1597,"RA_OF_ASC_NODE":97.0342,"ARG_OF_PERICENTER":75.2876,"MEAN_ANOMALY":284.8245,"EPHEMERIS_TYPE":0,"CLASSIFICATION_TYPE":"U","NORAD_CAT_ID":61258,"ELEMENT_SET_NO":999,"REV_AT_EPOCH":4905,"BSTAR":8.2188e-5,"MEAN_MOTION_DOT":2.075e-5,"MEAN_MOTION_DDOT":0},{"OBJECT_NAME":"STARLINK-32435","OBJECT_ID":"2024-175S","EPOCH":"2025-08-10T08:17:05.620416","MEAN_MOTION":15.30201382,"ECCENTRICITY":0.0001158,"INCLINATION":53.1592,"RA_OF_ASC_NODE":95.8696,"ARG_OF_PERICENTER":92.2214,"MEAN_ANOMALY":267.8919,"EPHEMERIS_TYPE":0,"CLASSIFICATION_TYPE":"U","NORAD_CAT_ID":61259,"ELEMENT_SET_NO":999,"REV_AT_EPOCH":4909,"BSTAR":-8.7387e-5,"MEAN_MOTION_DOT":-2.946e-5,"MEAN_MOTION_DDOT":0},{"OBJECT_NAME":"STARLINK-32474","OBJECT_ID":"2024-175T","EPOCH":"2025-08-09T22:23:53.561184","MEAN_MOTION":15.30190615,"ECCENTRICITY":0.0001151,"INCLINATION":53.1601,"RA_OF_ASC_NODE":97.5622,"ARG_OF_PERICENTER":80.0173,"MEAN_ANOMALY":280.0958,"EPHEMERIS_TYPE":0,"CLASSIFICATION_TYPE":"U","NORAD_CAT_ID":61260,"ELEMENT_SET_NO":999,"REV_AT_EPOCH":4903,"BSTAR":2.3031e-5,"MEAN_MOTION_DOT":3.23e-6,"MEAN_MOTION_DDOT":0},{"OBJECT_NAME":"STARLINK-32447","OBJECT_ID":"2024-175U","EPOCH":"2025-08-09T22:28:27.548544","MEAN_MOTION":15.30183667,"ECCENTRICITY":0.0001282,"INCLINATION":53.1595,"RA_OF_ASC_NODE":97.5801,"ARG_OF_PERICENTER":72.1244,"MEAN_ANOMALY":287.9896,"EPHEMERIS_TYPE":0,"CLASSIFICATION_TYPE":"U","NORAD_CAT_ID":61261,"ELEMENT_SET_NO":999,"REV_AT_EPOCH":4903,"BSTAR":-4.19e-5,"MEAN_MOTION_DOT":-1.599e-5,"MEAN_MOTION_DDOT":0},{"OBJECT_NAME":"STARLINK-32446","OBJECT_ID":"2024-175V","EPOCH":"2025-08-10T08:12:32.114304","MEAN_MOTION":15.30200083,"ECCENTRICITY":0.0001119,"INCLINATION":53.1595,"RA_OF_ASC_NODE":95.8495,"ARG_OF_PERICENTER":115.3437,"MEAN_ANOMALY":244.768,"EPHEMERIS_TYPE":0,"CLASSIFICATION_TYPE":"U","NORAD_CAT_ID":61262,"ELEMENT_SET_NO":999,"REV_AT_EPOCH":4909,"BSTAR":-0.0001083,"MEAN_MOTION_DOT":-3.565e-5,"MEAN_MOTION_DDOT":0},{"OBJECT_NAME":"STARLINK-32174","OBJECT_ID":"2024-183A","EPOCH":"2025-08-10T11:21:56.834208","MEAN_MOTION":15.39607355,"ECCENTRICITY":0.0001167,"INCLINATION":53.1617,"RA_OF_ASC_NODE":35.7616,"ARG_OF_PERICENTER":84.1832,"MEAN_ANOMALY":275.9306,"EPHEMERIS_TYPE":0,"CLASSIFICATION_TYPE":"U","NORAD_CAT_ID":61509,"ELEMENT_SET_NO":999,"REV_AT_EPOCH":4742,"BSTAR":1.1944e-5,"MEAN_MOTION_DOT":7.8e-7,"MEAN_MOTION_DDOT":0},{"OBJECT_NAME":"STARLINK-32139","OBJECT_ID":"2024-183B","EPOCH":"2025-08-10T05:07:11.207424","MEAN_MOTION":15.30191209,"ECCENTRICITY":8.91e-5,"INCLINATION":53.1603,"RA_OF_ASC_NODE":44.7978,"ARG_OF_PERICENTER":92.6799,"MEAN_ANOMALY":267.4304,"EPHEMERIS_TYPE":0,"CLASSIFICATION_TYPE":"U","NORAD_CAT_ID":61510,"ELEMENT_SET_NO":999,"REV_AT_EPOCH":4727,"BSTAR":8.1838e-6,"MEAN_MOTION_DOT":-1.17e-6,"MEAN_MOTION_DDOT":0},{"OBJECT_NAME":"STARLINK-32140","OBJECT_ID":"2024-183C","EPOCH":"2025-08-09T19:18:32.773536","MEAN_MOTION":15.3019641,"ECCENTRICITY":9.77e-5,"INCLINATION":53.1602,"RA_OF_ASC_NODE":46.5116,"ARG_OF_PERICENTER":102.6102,"MEAN_ANOMALY":257.5008,"EPHEMERIS_TYPE":0,"CLASSIFICATION_TYPE":"U","NORAD_CAT_ID":61511,"ELEMENT_SET_NO":999,"REV_AT_EPOCH":4721,"BSTAR":1.9598e-5,"MEAN_MOTION_DOT":2.21e-6,"MEAN_MOTION_DDOT":0},{"OBJECT_NAME":"STARLINK-32201","OBJECT_ID":"2024-183D","EPOCH":"2025-08-10T14:55:09.340032","MEAN_MOTION":15.39618045,"ECCENTRICITY":0.0001114,"INCLINATION":53.1603,"RA_OF_ASC_NODE":35.2644,"ARG_OF_PERICENTER":81.5725,"MEAN_ANOMALY":278.5406,"EPHEMERIS_TYPE":0,"CLASSIFICATION_TYPE":"U","NORAD_CAT_ID":61512,"ELEMENT_SET_NO":999,"REV_AT_EPOCH":4744,"BSTAR":-1.4748e-6,"MEAN_MOTION_DOT":-4.58e-6,"MEAN_MOTION_DDOT":0},{"OBJECT_NAME":"STARLINK-32030","OBJECT_ID":"2024-183E","EPOCH":"2025-08-10T05:16:18.699168","MEAN_MOTION":15.30184436,"ECCENTRICITY":0.0001137,"INCLINATION":53.1608,"RA_OF_ASC_NODE":44.8368,"ARG_OF_PERICENTER":100.0997,"MEAN_ANOMALY":260.0132,"EPHEMERIS_TYPE":0,"CLASSIFICATION_TYPE":"U","NORAD_CAT_ID":61513,"ELEMENT_SET_NO":999,"REV_AT_EPOCH":4727,"BSTAR":-1.471e-5,"MEAN_MOTION_DOT":-7.94e-6,"MEAN_MOTION_DDOT":0},{"OBJECT_NAME":"STARLINK-31837","OBJECT_ID":"2024-183F","EPOCH":"2025-08-10T04:58:04.306656","MEAN_MOTION":15.30187861,"ECCENTRICITY":0.0001109,"INCLINATION":53.1603,"RA_OF_ASC_NODE":44.745,"ARG_OF_PERICENTER":94.9378,"MEAN_ANOMALY":265.1749,"EPHEMERIS_TYPE":0,"CLASSIFICATION_TYPE":"U","NORAD_CAT_ID":61514,"ELEMENT_SET_NO":999,"REV_AT_EPOCH":4727,"BSTAR":-5.3801e-6,"MEAN_MOTION_DOT":-5.18e-6,"MEAN_MOTION_DDOT":0},{"OBJECT_NAME":"STARLINK-32136","OBJECT_ID":"2024-183G","EPOCH":"2025-08-10T11:46:12.169632","MEAN_MOTION":15.30180285,"ECCENTRICITY":0.0001684,"INCLINATION":53.1599,"RA_OF_ASC_NODE":43.6867,"ARG_OF_PERICENTER":85.6865,"MEAN_ANOMALY":274.4328,"EPHEMERIS_TYPE":0,"CLASSIFICATION_TYPE":"U","NORAD_CAT_ID":61515,"ELEMENT_SET_NO":999,"REV_AT_EPOCH":4731,"BSTAR":-3.2386e-5,"MEAN_MOTION_DOT":-1.318e-5,"MEAN_MOTION_DDOT":0},{"OBJECT_NAME":"STARLINK-32047","OBJECT_ID":"2024-183H","EPOCH":"2025-08-10T04:53:30.634656","MEAN_MOTION":15.30188785,"ECCENTRICITY":6.91e-5,"INCLINATION":53.1599,"RA_OF_ASC_NODE":44.7228,"ARG_OF_PERICENTER":66.5114,"MEAN_ANOMALY":293.596,"EPHEMERIS_TYPE":0,"CLASSIFICATION_TYPE":"U","NORAD_CAT_ID":61516,"ELEMENT_SET_NO":999,"REV_AT_EPOCH":4727,"BSTAR":-1.9964e-5,"MEAN_MOTION_DOT":-9.5e-6,"MEAN_MOTION_DDOT":0},{"OBJECT_NAME":"STARLINK-31756","OBJECT_ID":"2024-183J","EPOCH":"2025-08-09T18:54:23.001408","MEAN_MOTION":15.30193429,"ECCENTRICITY":0.0001223,"INCLINATION":53.1605,"RA_OF_ASC_NODE":47.0593,"ARG_OF_PERICENTER":88.1624,"MEAN_ANOMALY":271.9517,"EPHEMERIS_TYPE":0,"CLASSIFICATION_TYPE":"U","NORAD_CAT_ID":61517,"ELEMENT_SET_NO":999,"REV_AT_EPOCH":4720,"BSTAR":3.2584e-5,"MEAN_MOTION_DOT":6.06e-6,"MEAN_MOTION_DDOT":0}]
