STARLINK-11313 [DTC]    
1 61255U 24175N   25222.61480810 -.00003964  00000+0 -27915-4 0  9990
2 61255  53.1590  16.8668 0000847 102.3235 257.7878 15.69681892 50211
STARLINK-32431          
1 61256U 24175P   25221.93959060  .00000490  00000+0  28658-4 0  9997
2 61256  53.1592  97.5993 0001204  78.1805 281.9331 15.30191715 49031
STARLINK-32432          
1 61257U 24175Q   25222.07338883 -.00000215  00000+0  48668-5 0  9998
2 61257  53.1588  97.0162 0001257  81.7818 278.3325 15.30187447 49054
STARLINK-32382          
1 61258U 24175R   25222.07655694  .00002075  00000+0  82188-4 0  9990
2 61258  53.1597  97.0342 0001090  75.2876 284.8245 15.30188226 49051
STARLINK-32435          
1 61259U 24175S   25222.34520394 -.00002946  00000+0 -87387-4 0  9994
2 61259  53.1592  95.8696 0001158  92.2214 267.8919 15.30201382 49097
STARLINK-32474          
1 61260U 24175T   25221.93325881  .00000323  00000+0  23031-4 0  9995
2 61260  53.1601  97.5622 0001151  80.0173 280.0958 15.30190615 49030
STARLINK-32447          
1 61261U 24175U   25221.93642996 -.00001599  00000+0 -41900-4 0  9998
2 61261  53.1595  97.5801 0001282  72.1244 287.9896 15.30183667 49034
STARLINK-32446          
1 61262U 24175V   25222.34203836 -.00003565  00000+0 -10830-3 0  9993
2 61262  53.1595  95.8495 0001119 115.3437 244.7680 15.30200083 49098
STARLINK-32174          
1 61509U 24183A   25222.47357447  .00000078  00000+0  11944-4 0  9990
2 61509  53.1617  35.7616 0001167  84.1832 275.9306 15.39607355 47428
STARLINK-32139          
1 61510U 24183B   25222.21332416 -.00000117  00000+0  81838-5 0  9998
2 61510  53.1603  44.7978 0000891  92.6799 267.4304 15.30191209 47279
STARLINK-32140          
1 61511U 24183C   25221.80454599  .00000221  00000+0  19598-4 0  9998
2 61511  53.1602  46.5116 0000977 102.6102 257.5008 15.30196410 47212
STARLINK-32201          
1 61512U 24183D   25222.62163588 -.00000458  00000+0 -14748-5 0  9992
2 61512  53.1603  35.2644 0001114  81.5725 278.5406 15.39618045 47447
STARLINK-32030          
1 61513U 24183E   25222.21966087 -.00000794  00000+0 -14710-4 0  9994
2 61513  53.1608  44.8368 0001137 100.0997 260.0132 15.30184436 47271
STARLINK-31837          
1 61514U 24183F   25222.20699429 -.00000518  00000+0 -53801-5 0  9996
2 61514  53.1603  44.7450 0001109  94.9378 265.1749 15.30187861 47276
STARLINK-32136          
1 61515U 24183G   25222.49041863 -.00001318  00000+0 -32386-4 0  9994
2 61515  53.1599  43.6867 0001684  85.6865 274.4328 15.30180285 47311
STARLINK-32047          
1 61516U 24183H   25222.20382679 -.00000950  00000+0 -19964-4 0  9995
2 61516  53.1599  44.7228 0000691  66.5114 293.5960 15.30188785 47279
STARLINK-31756          
1 61517U 24183J   25221.78776622  .00000606  00000+0  32584-4 0  9992
2 61517  53.1605  47.0593 0001223  88.1624 271.9517 15.30193429 47209
